[{"OBJECT_NAME":"STARLINK-36617","OBJECT_ID":"2026-020T","EPOCH":"2026-03-09T22:00:01.999584","MEAN_MOTION":15.57952197,"ECCENTRICITY":0.00017004,"INCLINATION":42.9998,"RA_OF_ASC_NODE":140.4898,"ARG_OF_PERICENTER":280.4794,"MEAN_ANOMALY":139.9373,"EPHEMERIS_TYPE":0,"CLASSIFICATION_TYPE":"U","NORAD_CAT_ID":67634,"ELEMENT_SET_NO":999,"REV_AT_EPOCH":593,"BSTAR":-0.028244508,"MEAN_MOTION_DOT":-0.01915394,"MEAN_MOTION_DDOT":0},{"OBJECT_NAME":"PSLV R\/B","OBJECT_ID":"2020-081L","EPOCH":"2026-03-09T11:07:47.822880","MEAN_MOTION":15.35733047,"ECCENTRICITY":0.00238531,"INCLINATION":36.845,"RA_OF_ASC_NODE":143.8276,"ARG_OF_PERICENTER":144.7418,"MEAN_ANOMALY":215.4916,"EPHEMERIS_TYPE":0,"CLASSIFICATION_TYPE":"U","NORAD_CAT_ID":46915,"ELEMENT_SET_NO":999,"REV_AT_EPOCH":29573,"BSTAR":0.00039539958,"MEAN_MOTION_DOT":0.00014147,"MEAN_MOTION_DDOT":0}]
